{
  "type": "FeatureCollection",
  "features": [
    {
      "type": "Feature",
      "properties": {
        "norad_id": 33886,
        "name": "IRIDIUM 33 DEB",
        "group": "iridium-33-debris",
        "lat": 5.5833425421967755,
        "lon": -110.5829548872861,
        "alt_km": 774.0552833015536,
        "timestamp": "2025-12-06T16:45:43.106186+00:00",
        "meta_object_name": "IRIDIUM 33 DEB",
        "meta_object_id": "1997-051BF",
        "meta_epoch": "2025-12-06T00:02:04.981920",
        "meta_mean_motion": 14.36038974,
        "meta_eccentricity": 0.00120797,
        "meta_inclination": 86.3831,
        "meta_ra_of_asc_node": 70.0646,
        "meta_arg_of_pericenter": 267.6196,
        "meta_mean_anomaly": 265.9363,
        "meta_ephemeris_type": 0,
        "meta_classification_type": "U",
        "meta_norad_cat_id": 33886,
        "meta_element_set_no": 999,
        "meta_rev_at_epoch": 87955,
        "meta_bstar": 0.0003752743,
        "meta_mean_motion_dot": 1.111e-05,
        "meta_mean_motion_ddot": 0,
        "tle_line1": "1 33886U 97051BF  25340.00144655  .00001111  00000+0  37527-3 0  9999",
        "tle_line2": "2 33886  86.3831  70.0646 0012079 267.6196 265.9363 14.36038974879551"
      },
      "geometry": {
        "type": "Point",
        "coordinates": [
          -110.5829548872861,
          5.5833425421967755
        ]
      }
    },
    {
      "type": "Feature",
      "properties": {
        "norad_id": 33887,
        "name": "IRIDIUM 33 DEB",
        "group": "iridium-33-debris",
        "lat": 83.96813939818065,
        "lon": 43.70050732385672,
        "alt_km": 763.1667072103646,
        "timestamp": "2025-12-06T16:45:43.106197+00:00",
        "meta_object_name": "IRIDIUM 33 DEB",
        "meta_object_id": "1997-051BG",
        "meta_epoch": "2025-12-06T08:06:28.753056",
        "meta_mean_motion": 14.37212658,
        "meta_eccentricity": 0.00040789,
        "meta_inclination": 86.3048,
        "meta_ra_of_asc_node": 6.1511,
        "meta_arg_of_pericenter": 256.9611,
        "meta_mean_anomaly": 123.8244,
        "meta_ephemeris_type": 0,
        "meta_classification_type": "U",
        "meta_norad_cat_id": 33887,
        "meta_element_set_no": 999,
        "meta_rev_at_epoch": 88073,
        "meta_bstar": 0.00027683499,
        "meta_mean_motion_dot": 8.43e-06,
        "meta_mean_motion_ddot": 0,
        "tle_line1": "1 33887U 97051BG  25340.33783279  .00000843  00000+0  27683-3 0  9990",
        "tle_line2": "2 33887  86.3048   6.1511 0004078 256.9611 123.8244 14.37212658880732"
      },
      "geometry": {
        "type": "Point",
        "coordinates": [
          43.70050732385672,
          83.96813939818065
        ]
      }
    },
    {
      "type": "Feature",
      "properties": {
        "norad_id": 33953,
        "name": "IRIDIUM 33 DEB",
        "group": "iridium-33-debris",
        "lat": -86.14657480698693,
        "lon": -53.78941679355648,
        "alt_km": 727.1693305459794,
        "timestamp": "2025-12-06T16:45:43.106208+00:00",
        "meta_object_name": "IRIDIUM 33 DEB",
        "meta_object_id": "1997-051BN",
        "meta_epoch": "2025-12-05T23:50:27.951648",
        "meta_mean_motion": 14.55218556,
        "meta_eccentricity": 0.00185309,
        "meta_inclination": 86.3851,
        "meta_ra_of_asc_node": 56.7073,
        "meta_arg_of_pericenter": 123.3499,
        "meta_mean_anomaly": 54.0321,
        "meta_ephemeris_type": 0,
        "meta_classification_type": "U",
        "meta_norad_cat_id": 33953,
        "meta_element_set_no": 999,
        "meta_rev_at_epoch": 88205,
        "meta_bstar": 0.0020564879,
        "meta_mean_motion_dot": 8.94e-05,
        "meta_mean_motion_ddot": 0,
        "tle_line1": "1 33953U 97051BN  25339.99337907  .00008940  00000+0  20565-2 0  9994",
        "tle_line2": "2 33953  86.3851  56.7073 0018530 123.3499  54.0321 14.55218556882052"
      },
      "geometry": {
        "type": "Point",
        "coordinates": [
          -53.78941679355648,
          -86.14657480698693
        ]
      }
    },
    {
      "type": "Feature",
      "properties": {
        "norad_id": 33960,
        "name": "IRIDIUM 33 DEB",
        "group": "iridium-33-debris",
        "lat": 31.130581960534318,
        "lon": 110.09258835300261,
        "alt_km": 612.0030171166272,
        "timestamp": "2025-12-06T16:45:43.106219+00:00",
        "meta_object_name": "IRIDIUM 33 DEB",
        "meta_object_id": "1997-051BV",
        "meta_epoch": "2025-12-05T20:56:06.827136",
        "meta_mean_motion": 14.84637403,
        "meta_eccentricity": 0.00073215,
        "meta_inclination": 86.2534,
        "meta_ra_of_asc_node": 292.7499,
        "meta_arg_of_pericenter": 71.7421,
        "meta_mean_anomaly": 344.3493,
        "meta_ephemeris_type": 0,
        "meta_classification_type": "U",
        "meta_norad_cat_id": 33960,
        "meta_element_set_no": 999,
        "meta_rev_at_epoch": 88765,
        "meta_bstar": 0.005328277,
        "meta_mean_motion_dot": 0.00045322,
        "meta_mean_motion_ddot": 0,
        "tle_line1": "1 33960U 97051BV  25339.87230124  .00045322  00000+0  53283-2 0  9990",
        "tle_line2": "2 33960  86.2534 292.7499 0007321  71.7421 344.3493 14.84637403887652"
      },
      "geometry": {
        "type": "Point",
        "coordinates": [
          110.09258835300261,
          31.130581960534318
        ]
      }
    },
    {
      "type": "Feature",
      "properties": {
        "norad_id": 33966,
        "name": "IRIDIUM 33 DEB",
        "group": "iridium-33-debris",
        "lat": 21.471187733967557,
        "lon": -132.80153713006158,
        "alt_km": 724.051038777131,
        "timestamp": "2025-12-06T16:45:43.106230+00:00",
        "meta_object_name": "IRIDIUM 33 DEB",
        "meta_object_id": "1997-051CB",
        "meta_epoch": "2025-12-06T04:33:59.120640",
        "meta_mean_motion": 14.49551891,
        "meta_eccentricity": 0.00066741,
        "meta_inclination": 86.393,
        "meta_ra_of_asc_node": 48.8381,
        "meta_arg_of_pericenter": 211.361,
        "meta_mean_anomaly": 177.0583,
        "meta_ephemeris_type": 0,
        "meta_classification_type": "U",
        "meta_norad_cat_id": 33966,
        "meta_element_set_no": 999,
        "meta_rev_at_epoch": 88347,
        "meta_bstar": 0.0010231786,
        "meta_mean_motion_dot": 3.944e-05,
        "meta_mean_motion_ddot": 0,
        "tle_line1": "1 33966U 97051CB  25340.19026760  .00003944  00000+0  10232-2 0  9993",
        "tle_line2": "2 33966  86.3930  48.8381 0006674 211.3610 177.0583 14.49551891883475"
      },
      "geometry": {
        "type": "Point",
        "coordinates": [
          -132.80153713006158,
          21.471187733967557
        ]
      }
    },
    {
      "type": "Feature",
      "properties": {
        "norad_id": 34071,
        "name": "IRIDIUM 33 DEB",
        "group": "iridium-33-debris",
        "lat": -47.71565340019808,
        "lon": -155.51593551011337,
        "alt_km": 736.1216403205317,
        "timestamp": "2025-12-06T16:45:43.106240+00:00",
        "meta_object_name": "IRIDIUM 33 DEB",
        "meta_object_id": "1997-051CE",
        "meta_epoch": "2025-12-06T00:48:11.303424",
        "meta_mean_motion": 14.49419085,
        "meta_eccentricity": 0.00096471,
        "meta_inclination": 86.3459,
        "meta_ra_of_asc_node": 20.7435,
        "meta_arg_of_pericenter": 125.7564,
        "meta_mean_anomaly": 234.4539,
        "meta_ephemeris_type": 0,
        "meta_classification_type": "U",
        "meta_norad_cat_id": 34071,
        "meta_element_set_no": 999,
        "meta_rev_at_epoch": 88237,
        "meta_bstar": 0.0010855962,
        "meta_mean_motion_dot": 4.173e-05,
        "meta_mean_motion_ddot": 0,
        "tle_line1": "1 34071U 97051CE  25340.03346416  .00004173  00000+0  10856-2 0  9994",
        "tle_line2": "2 34071  86.3459  20.7435 0009647 125.7564 234.4539 14.49419085882372"
      },
      "geometry": {
        "type": "Point",
        "coordinates": [
          -155.51593551011337,
          -47.71565340019808
        ]
      }
    },
    {
      "type": "Feature",
      "properties": {
        "norad_id": 34077,
        "name": "IRIDIUM 33 DEB",
        "group": "iridium-33-debris",
        "lat": 81.83608663249481,
        "lon": -151.96299845143673,
        "alt_km": 664.7984411049601,
        "timestamp": "2025-12-06T16:45:43.106252+00:00",
        "meta_object_name": "IRIDIUM 33 DEB",
        "meta_object_id": "1997-051CL",
        "meta_epoch": "2025-12-05T23:05:18.140064",
        "meta_mean_motion": 14.64674257,
        "meta_eccentricity": 0.00107697,
        "meta_inclination": 86.387,
        "meta_ra_of_asc_node": 54.4927,
        "meta_arg_of_pericenter": 60.5713,
        "meta_mean_anomaly": 116.2459,
        "meta_ephemeris_type": 0,
        "meta_classification_type": "U",
        "meta_norad_cat_id": 34077,
        "meta_element_set_no": 999,
        "meta_rev_at_epoch": 88233,
        "meta_bstar": 0.0027478125,
        "meta_mean_motion_dot": 0.00014664,
        "meta_mean_motion_ddot": 0,
        "tle_line1": "1 34077U 97051CL  25339.96201551  .00014664  00000+0  27478-2 0  9994",
        "tle_line2": "2 34077  86.3870  54.4927 0010769  60.5713 116.2459 14.64674257882339"
      },
      "geometry": {
        "type": "Point",
        "coordinates": [
          -151.96299845143673,
          81.83608663249481
        ]
      }
    }
  ]
}